{"type": "FeatureCollection", "features": [ {"type": "Feature", "properties": {"norad_id": 37483, "name": "COSMOS 2251 DEB", "group": "cosmos-2251-debris", "lat": 31.845216400384334, "lon": -68.41109281134959, "alt_km": 811.2262435565162, "timestamp": "2025-12-24T05:51:20.007133+00:00", "meta": {"OBJECT_NAME": "COSMOS 2251 DEB", "OBJECT_ID": "1993-036BLL", "EPOCH": "2025-12-23T02:33:52.748064", "MEAN_MOTION": 14.43571183, "ECCENTRICITY": 0.00936083, "INCLINATION": 73.974, "RA_OF_ASC_NODE": 123.9935, "ARG_OF_PERICENTER": 328.1601, "MEAN_ANOMALY": 31.3916, "EPHEMERIS_TYPE": 0, "CLASSIFICATION_TYPE": "U", "NORAD_CAT_ID": 37483, "ELEMENT_SET_NO": 999, "REV_AT_EPOCH": 65429, "BSTAR": 0.00020299527, "MEAN_MOTION_DOT": 6.96e-06, "MEAN_MOTION_DDOT": 0}, "tle": {"line1": "1 37483U 93036BLL 25357.10686051  .00000696  00000+0  20300-3 0  9993", "line2": "2 37483  73.9740 123.9935 0093608 328.1601  31.3916 14.43571183654292"}}, "geometry": {"type": "Point", "coordinates": [-68.41109281134959, 31.845216400384334]}}, {"type": "Feature", "properties": {"norad_id": 37484, "name": "COSMOS 2251 DEB", "group": "cosmos-2251-debris", "lat": -34.941495521548134, "lon": 175.1377708759578, "alt_km": 764.6785526289259, "timestamp": "2025-12-24T05:51:20.007144+00:00", "meta": {"OBJECT_NAME": "COSMOS 2251 DEB", "OBJECT_ID": "1993-036BLM", "EPOCH": "2025-12-23T22:01:02.180640", "MEAN_MOTION": 14.41832075, "ECCENTRICITY": 0.00393042, "INCLINATION": 73.821, "RA_OF_ASC_NODE": 187.4539, "ARG_OF_PERICENTER": 220.8434, "MEAN_ANOMALY": 207.6545, "EPHEMERIS_TYPE": 0, "CLASSIFICATION_TYPE": "U", "NORAD_CAT_ID": 37484, "ELEMENT_SET_NO": 999, "REV_AT_EPOCH": 65540, "BSTAR": 0.00075174849, "MEAN_MOTION_DOT": 2.453e-05, "MEAN_MOTION_DDOT": 0}, "tle": {"line1": "1 37484U 93036BLM 25357.91738635  .00002453  00000+0  75175-3 0  9992", "line2": "2 37484  73.8210 187.4539 0039304 220.8434 207.6545 14.41832075655402"}}, "geometry": {"type": "Point", "coordinates": [175.1377708759578, -34.941495521548134]}}, {"type": "Feature", "properties": {"norad_id": 37486, "name": "COSMOS 2251 DEB", "group": "cosmos-2251-debris", "lat": 50.60684595413876, "lon": -107.08516136570633, "alt_km": 1004.4176563778219, "timestamp": "2025-12-24T05:51:20.007155+00:00", "meta": {"OBJECT_NAME": "COSMOS 2251 DEB", "OBJECT_ID": "1993-036BLP", "EPOCH": "2025-12-22T01:29:57.186816", "MEAN_MOTION": 14.13400204, "ECCENTRICITY": 0.02307676, "INCLINATION": 73.6926, "RA_OF_ASC_NODE": 97.742, "ARG_OF_PERICENTER": 324.2908, "MEAN_ANOMALY": 225.4892, "EPHEMERIS_TYPE": 0, "CLASSIFICATION_TYPE": "U", "NORAD_CAT_ID": 37486, "ELEMENT_SET_NO": 999, "REV_AT_EPOCH": 63501, "BSTAR": 0.0019350142, "MEAN_MOTION_DOT": 4.66e-05, "MEAN_MOTION_DDOT": 0}, "tle": {"line1": "1 37486U 93036BLP 25356.06246744  .00004660  00000+0  19350-2 0  9998", "line2": "2 37486  73.6926  97.7420 0230767 324.2908 225.4892 14.13400204635011"}}, "geometry": {"type": "Point", "coordinates": [-107.08516136570633, 50.60684595413876]}}, {"type": "Feature", "properties": {"norad_id": 37487, "name": "COSMOS 2251 DEB", "group": "cosmos-2251-debris", "lat": 25.665581458702018, "lon": -18.773015730135572, "alt_km": 637.7126001570678, "timestamp": "2025-12-24T05:51:20.007165+00:00", "meta": {"OBJECT_NAME": "COSMOS 2251 DEB", "OBJECT_ID": "1993-036BLQ", "EPOCH": "2025-12-12T06:17:24.389376", "MEAN_MOTION": 14.80982589, "ECCENTRICITY": 0.00255931, "INCLINATION": 73.9026, "RA_OF_ASC_NODE": 193.0379, "ARG_OF_PERICENTER": 31.2136, "MEAN_ANOMALY": 329.0553, "EPHEMERIS_TYPE": 0, "CLASSIFICATION_TYPE": "U", "NORAD_CAT_ID": 37487, "ELEMENT_SET_NO": 999, "REV_AT_EPOCH": 81238, "BSTAR": 0.0042593386, "MEAN_MOTION_DOT": 0.00033302, "MEAN_MOTION_DDOT": 0}, "tle": {"line1": "1 37487U 93036BLQ 25346.26208784  .00033302  00000+0  42593-2 0  9992", "line2": "2 37487  73.9026 193.0379 0025593  31.2136 329.0553 14.80982589812383"}}, "geometry": {"type": "Point", "coordinates": [-18.773015730135572, 25.665581458702018]}}, {"type": "Feature", "properties": {"norad_id": 37491, "name": "COSMOS 2251 DEB", "group": "cosmos-2251-debris", "lat": -19.712586444343362, "lon": 80.74278113451841, "alt_km": 817.8711912544813, "timestamp": "2025-12-24T05:51:20.007175+00:00", "meta": {"OBJECT_NAME": "COSMOS 2251 DEB", "OBJECT_ID": "1993-036BLU", "EPOCH": "2025-12-22T10:57:29.496960", "MEAN_MOTION": 13.75314212, "ECCENTRICITY": 0.03164965, "INCLINATION": 73.9061, "RA_OF_ASC_NODE": 257.8008, "ARG_OF_PERICENTER": 249.1105, "MEAN_ANOMALY": 107.5867, "EPHEMERIS_TYPE": 0, "CLASSIFICATION_TYPE": "U", "NORAD_CAT_ID": 37491, "ELEMENT_SET_NO": 999, "REV_AT_EPOCH": 55880, "BSTAR": 0.00087641846, "MEAN_MOTION_DOT": 1.186e-05, "MEAN_MOTION_DDOT": 0}, "tle": {"line1": "1 37491U 93036BLU 25356.45659140  .00001186  00000+0  87642-3 0  9995", "line2": "2 37491  73.9061 257.8008 0316496 249.1105 107.5867 13.75314212558802"}}, "geometry": {"type": "Point", "coordinates": [80.74278113451841, -19.712586444343362]}}, {"type": "Feature", "properties": {"norad_id": 37498, "name": "COSMOS 2251 DEB", "group": "cosmos-2251-debris", "lat": -56.945249397293566, "lon": 136.02086585388437, "alt_km": 714.5354297709418, "timestamp": "2025-12-24T05:51:20.007185+00:00", "meta": {"OBJECT_NAME": "COSMOS 2251 DEB", "OBJECT_ID": "1993-036BMB", "EPOCH": "2025-12-17T05:47:45.632832", "MEAN_MOTION": 14.54797097, "ECCENTRICITY": 0.00121661, "INCLINATION": 74.035, "RA_OF_ASC_NODE": 175.365, "ARG_OF_PERICENTER": 238.5243, "MEAN_ANOMALY": 121.4732, "EPHEMERIS_TYPE": 0, "CLASSIFICATION_TYPE": "U", "NORAD_CAT_ID": 37498, "ELEMENT_SET_NO": 999, "REV_AT_EPOCH": 65420, "BSTAR": 0.00050498457, "MEAN_MOTION_DOT": 2.139e-05, "MEAN_MOTION_DDOT": 0}, "tle": {"line1": "1 37498U 93036BMB 25351.24150038  .00002139  00000+0  50498-3 0  9994", "line2": "2 37498  74.0350 175.3650 0012166 238.5243 121.4732 14.54797097654202"}}, "geometry": {"type": "Point", "coordinates": [136.02086585388437, -56.945249397293566]}}, {"type": "Feature", "properties": {"norad_id": 37499, "name": "COSMOS 2251 DEB", "group": "cosmos-2251-debris", "lat": 24.25596743102546, "lon": -51.460915615353215, "alt_km": 756.9935975279859, "timestamp": "2025-12-24T05:51:20.007195+00:00", "meta": {"OBJECT_NAME": "COSMOS 2251 DEB", "OBJECT_ID": "1993-036BMC", "EPOCH": "2025-12-23T02:57:22.621536", "MEAN_MOTION": 14.34351991, "ECCENTRICITY": 0.00274212, "INCLINATION": 74.0383, "RA_OF_ASC_NODE": 303.1804, "ARG_OF_PERICENTER": 16.3552, "MEAN_ANOMALY": 343.8478, "EPHEMERIS_TYPE": 0, "CLASSIFICATION_TYPE": "U", "NORAD_CAT_ID": 37499, "ELEMENT_SET_NO": 999, "REV_AT_EPOCH": 85298, "BSTAR": 0.00016952069, "MEAN_MOTION_DOT": 4.53e-06, "MEAN_MOTION_DDOT": 0}, "tle": {"line1": "1 37499U 93036BMC 25357.12317849  .00000453  00000+0  16952-3 0  9997", "line2": "2 37499  74.0383 303.1804 0027421  16.3552 343.8478 14.34351991852985"}}, "geometry": {"type": "Point", "coordinates": [-51.460915615353215, 24.25596743102546]}}, {"type": "Feature", "properties": {"norad_id": 37528, "name": "COSMOS 2251 DEB", "group": "cosmos-2251-debris", "lat": 46.7125132773904, "lon": -97.17070646961544, "alt_km": 726.0531325251231, "timestamp": "2025-12-24T05:51:20.007205+00:00", "meta": {"OBJECT_NAME": "COSMOS 2251 DEB", "OBJECT_ID": "1993-036BNH", "EPOCH": "2025-12-22T00:17:10.365792", "MEAN_MOTION": 14.50551817, "ECCENTRICITY": 0.00211657, "INCLINATION": 74.0378, "RA_OF_ASC_NODE": 104.7119, "ARG_OF_PERICENTER": 251.9967, "MEAN_ANOMALY": 107.8887, "EPHEMERIS_TYPE": 0, "CLASSIFICATION_TYPE": "U", "NORAD_CAT_ID": 37528, "ELEMENT_SET_NO": 999, "REV_AT_EPOCH": 86065, "BSTAR": 0.00046776664, "MEAN_MOTION_DOT": 1.81e-05, "MEAN_MOTION_DDOT": 0}, "tle": {"line1": "1 37528U 93036BNH 25356.01192553  .00001810  00000+0  46777-3 0  9996", "line2": "2 37528  74.0378 104.7119 0021165 251.9967 107.8887 14.50551817860654"}}, "geometry": {"type": "Point", "coordinates": [-97.17070646961544, 46.7125132773904]}}, {"type": "Feature", "properties": {"norad_id": 37530, "name": "COSMOS 2251 DEB", "group": "cosmos-2251-debris", "lat": 72.65144968728849, "lon": 66.18395097229231, "alt_km": 767.8057564284572, "timestamp": "2025-12-24T05:51:20.007215+00:00", "meta": {"OBJECT_NAME": "COSMOS 2251 DEB", "OBJECT_ID": "1993-036BNK", "EPOCH": "2025-12-21T14:21:51.053184", "MEAN_MOTION": 14.34514444, "ECCENTRICITY": 0.00262828, "INCLINATION": 74.0362, "RA_OF_ASC_NODE": 317.4173, "ARG_OF_PERICENTER": 16.8555, "MEAN_ANOMALY": 103.2676, "EPHEMERIS_TYPE": 0, "CLASSIFICATION_TYPE": "U", "NORAD_CAT_ID": 37530, "ELEMENT_SET_NO": 999, "REV_AT_EPOCH": 85359, "BSTAR": 0.00021615779, "MEAN_MOTION_DOT": 5.86e-06, "MEAN_MOTION_DDOT": 0}, "tle": {"line1": "1 37530U 93036BNK 25355.59850756  .00000586  00000+0  21616-3 0  9991", "line2": "2 37530  74.0362 317.4173 0026282  16.8555 103.2676 14.34514444853597"}}, "geometry": {"type": "Point", "coordinates": [66.18395097229231, 72.65144968728849]}}, {"type": "Feature", "properties": {"norad_id": 37532, "name": "COSMOS 2251 DEB", "group": "cosmos-2251-debris", "lat": -22.740282757317328, "lon": 21.285421512936406, "alt_km": 755.5951564500665, "timestamp": "2025-12-24T05:51:20.007225+00:00", "meta": {"OBJECT_NAME": "COSMOS 2251 DEB", "OBJECT_ID": "1993-036BNM", "EPOCH": "2025-12-23T06:09:57.152736", "MEAN_MOTION": 14.42421631, "ECCENTRICITY": 0.00161913, "INCLINATION": 74.0489, "RA_OF_ASC_NODE": 196.2293, "ARG_OF_PERICENTER": 295.9587, "MEAN_ANOMALY": 184.3204, "EPHEMERIS_TYPE": 0, "CLASSIFICATION_TYPE": "U", "NORAD_CAT_ID": 37532, "ELEMENT_SET_NO": 999, "REV_AT_EPOCH": 85067, "BSTAR": 0.00017964989, "MEAN_MOTION_DOT": 5.69e-06, "MEAN_MOTION_DDOT": 0}, "tle": {"line1": "1 37532U 93036BNM 25357.25691149  .00000569  00000+0  17965-3 0  9990", "line2": "2 37532  74.0489 196.2293 0016191 295.9587 184.3204 14.42421631850675"}}, "geometry": {"type": "Point", "coordinates": [21.285421512936406, -22.740282757317328]}}]}